     2.100          NAVIGATION                              RINEX VERSION / TYPE
fic2rin                                 02/26/2015 00:15:24 PGM / RUN BY / DATE
                                                            END OF HEADER
27 15  2 25  8  0  0.0  .538630411029D-04  .261479726760D-11  .000000000000D+00
     .840000000000D+02 -.334687500000D+02  .446375736198D-08 -.159107371872D+01
    -.181794166565D-05  .205207010731D-02  .888668000698D-05  .515368712997D+04
     .288000000000D+06  .484287738800D-07 -.135520046161D+01 -.204890966415D-07
     .966107630969D+00  .211562500000D+03  .137180199683D+00 -.798747556756D-08
     .311798701953D-09  .100000000000D+01  .183300000000D+04  .000000000000D+00
     .240000000000D+01  .000000000000D+00  .186264514923D-08  .840000000000D+02
     .280806000000D+06  .400000000000D+01
28 15  2 25  8  0  0.0  .421924982220D-03  .261479726760D-11  .000000000000D+00
     .180000000000D+02 -.371875000000D+02  .396409369184D-08 -.882023052578D+00
    -.175088644028D-05  .196725733113D-01  .759959220886D-05  .515369455719D+04
     .288000000000D+06 -.303611159325D-06 -.233068329086D+01  .234693288803D-06
     .988501574235D+00  .254093750000D+03 -.166911702769D+01 -.816105422638D-08
     .421446126351D-10  .100000000000D+01  .183300000000D+04  .000000000000D+00
     .240000000000D+01  .000000000000D+00 -.111758708954D-07  .180000000000D+02
     .280806000000D+06  .400000000000D+01
29 15  2 25  8  0  0.0  .594238750637D-03  .227373675443D-11  .000000000000D+00
     .100000000000D+03 -.290625000000D+02  .439268297288D-08  .116181858321D+01
    -.147335231304D-05  .132077175658D-02  .939145684242D-05  .515355184555D+04
     .288000000000D+06  .186264514923D-07 -.129867698480D+01  .130385160446D-07
     .972074812372D+00  .207093750000D+03 -.829533652835D+00 -.794247369305D-08
     .330370904131D-09  .100000000000D+01  .183300000000D+04  .000000000000D+00
     .340000000000D+01  .000000000000D+00 -.977888703346D-08  .100000000000D+03
     .280806000000D+06  .400000000000D+01
30 15  2 25  8  0  0.0 -.832150690258D-04  .181898940355D-11  .000000000000D+00
     .106000000000D+03  .225000000000D+02  .465555106525D-08  .195815726870D+01
     .117346644402D-05  .103876367211D-02  .456348061562D-05  .515377129173D+04
     .288000000000D+06  .931322574615D-08  .291228359914D+01  .298023223877D-07
     .957024568646D+00  .288812500000D+03  .291959894732D+01 -.833284709653D-08
    -.357157734196D-11  .100000000000D+01  .183300000000D+04  .000000000000D+00
     .240000000000D+01  .000000000000D+00  .325962901115D-08  .106000000000D+03
     .280806000000D+06  .400000000000D+01
31 15  2 25  8  0  0.0  .322506763041D-03 -.909494701773D-12  .000000000000D+00
     .630000000000D+02  .419375000000D+02  .420267505829D-08  .172411851963D+01
     .226311385632D-05  .826954550575D-02  .452622771263D-05  .515373633766D+04
     .288000000000D+06  .204890966415D-07  .286903134649D+01  .875443220139D-07
     .976204183920D+00  .297437500000D+03 -.543537277675D+00 -.807462205471D-08
    -.132148361653D-10  .100000000000D+01  .183300000000D+04  .000000000000D+00
     .240000000000D+01  .000000000000D+00 -.135041773319D-07  .630000000000D+02
     .280806000000D+06  .400000000000D+01
29 15  2 25  7 59 44.0  .594235956669D-03  .227373675443D-11  .000000000000D+00
     .200000000000D+02 -.290625000000D+02  .439268297288D-08  .115948501382D+01
    -.147335231304D-05  .132076977752D-02  .939145684242D-05  .515355184364D+04
     .287984000000D+06  .186264514923D-07 -.129867687069D+01  .130385160446D-07
     .972074790428D+00  .207093750000D+03 -.829533987843D+00 -.794247369305D-08
     .330370904131D-09  .100000000000D+01  .183300000000D+04  .000000000000D+00
     .240000000000D+01  .000000000000D+00 -.977888703346D-08  .200000000000D+02
     .285486000000D+06  .400000000000D+01
30 15  2 25  7 59 44.0 -.832141377032D-04  .181898940355D-11  .000000000000D+00
     .110000000000D+02  .225000000000D+02  .465519390751D-08  .195582056428D+01
     .117346644402D-05  .103876879439D-02  .456348061562D-05  .515377129364D+04
     .287984000000D+06  .931322574615D-08  .291228374250D+01  .298023223877D-07
     .957024573035D+00  .288812500000D+03  .291960200775D+01 -.833284709653D-08
    -.321441960776D-11  .100000000000D+01  .183300000000D+04  .000000000000D+00
     .240000000000D+01  .000000000000D+00  .325962901115D-08  .110000000000D+02
     .287196000000D+06  .400000000000D+01
29 15  2 25  9 59 44.0  .594252720475D-03  .227373675443D-11  .000000000000D+00
     .210000000000D+02 -.229687500000D+02  .429660754238D-08  .220913966808D+01
    -.141561031342D-05  .132095161825D-02  .915303826332D-05  .515355327797D+04
     .295184000000D+06  .000000000000D+00 -.129873389378D+01  .298023223877D-07
     .972077170596D+00  .210281250000D+03 -.828935313489D+00 -.792604443728D-08
     .315727437029D-09  .100000000000D+01  .183300000000D+04  .000000000000D+00
     .240000000000D+01  .000000000000D+00 -.977888703346D-08  .210000000000D+02
     .288006000000D+06  .400000000000D+01
30 15  2 25  9 59 44.0 -.832010991871D-04  .181898940355D-11  .000000000000D+00
     .120000000000D+02  .369062500000D+02  .470341020163D-08  .300697714094D+01
     .193715095520D-05  .104044843465D-02  .453740358353D-05  .515376754570D+04
     .295184000000D+06 -.223517417908D-07  .291222372336D+01  .409781932831D-07
     .957024630089D+00  .288875000000D+03  .291856875602D+01 -.832820404598D-08
     .107147320259D-10  .100000000000D+01  .183300000000D+04  .000000000000D+00
     .240000000000D+01  .000000000000D+00  .325962901115D-08  .120000000000D+02
     .288006000000D+06  .400000000000D+01
 1 15  2 25 10  0  0.0 -.861799344420D-05  .454747350886D-12  .000000000000D+00
     .950000000000D+02 -.133125000000D+02  .479484258158D-08 -.280472146041D+01
    -.732019543648D-06  .390521262307D-02  .737980008125D-05  .515366378212D+04
     .295200000000D+06 -.838190317154D-07 -.298477102758D+00 -.689178705215D-07
     .962180633657D+00  .238031250000D+03  .398315740615D+00 -.805747848346D-08
     .151077721565D-09  .100000000000D+01  .183300000000D+04  .000000000000D+00
     .240000000000D+01  .000000000000D+00  .558793544769D-08  .950000000000D+02
     .288006000000D+06  .400000000000D+01
 2 15  2 25 10  0  0.0  .550075434148D-03  .227373675443D-11  .000000000000D+00
     .910000000000D+02 -.185937500000D+02  .527486257634D-08 -.223805894135D+01
    -.942498445511D-06  .144220228540D-01  .661052763462D-05  .515377200699D+04
     .295200000000D+06  .245869159698D-06 -.334042048592D+00 -.651925802231D-07
     .940769250541D+00  .238343750000D+03 -.231299006911D+01 -.828177354054D-08
     .278940190407D-09  .100000000000D+01  .183300000000D+04  .000000000000D+00
     .240000000000D+01  .000000000000D+00 -.204890966415D-07  .910000000000D+02
     .288006000000D+06  .400000000000D+01
 3 15  2 25 10  0  0.0  .227541662753D-03  .194404492504D-10  .000000000000D+00
     .620000000000D+02 -.637500000000D+01  .468340936851D-08 -.525262895628D+00
    -.417232513428D-06  .947421998717D-03  .879913568497D-05  .515373744583D+04
     .295200000000D+06  .558793544769D-08  .741662455824D+00 -.204890966415D-07
     .959523831059D+00  .207375000000D+03 -.294390032657D+01 -.804497796277D-08
    -.324656380384D-09  .100000000000D+01  .183300000000D+04  .000000000000D+00
     .240000000000D+01  .000000000000D+00  .139698386192D-08  .620000000000D+02
     .288006000000D+06  .400000000000D+01
 4 15  2 25 10  0  0.0 -.785943120718D-05 -.795807864051D-12  .000000000000D+00
     .810000000000D+02 -.152500000000D+02  .528414867743D-08 -.301054046267D+01
    -.841915607452D-06  .110520382877D-01  .695511698723D-05  .515372086143D+04
     .295200000000D+06  .134110450745D-06 -.318658386818D+00 -.203028321266D-06
     .939815789294D+00  .230968750000D+03  .105140677076D+01 -.824034324337D-08
     .187150652719D-09  .100000000000D+01  .183300000000D+04  .000000000000D+00
     .240000000000D+01  .000000000000D+00 -.651925802231D-08  .810000000000D+02
     .288006000000D+06  .400000000000D+01
 5 15  2 25 10  0  0.0 -.274443533272D-03  .500222085975D-11  .000000000000D+00
     .990000000000D+02 -.750000000000D+01  .496163524345D-08  .118471272450D+00
    -.391155481339D-06  .402987666894D-02  .862404704094D-05  .515377840805D+04
     .295200000000D+06 -.130385160446D-07  .735825474130D+00  .391155481339D-07
     .946793354086D+00  .202437500000D+03  .417889309487D+00 -.827070165078D-08
    -.328227957726D-09  .100000000000D+01  .183300000000D+04  .000000000000D+00
     .240000000000D+01  .000000000000D+00 -.107102096081D-07  .990000000000D+02
     .288006000000D+06  .400000000000D+01
 6 15  2 25 10  0  0.0  .921501778066D-04  .110276232590D-10  .000000000000D+00
     .880000000000D+02 -.165000000000D+02  .485484508093D-08 -.361704246594D+00
    -.758096575737D-06  .317056663334D-03  .702030956745D-05  .515369950676D+04
     .295200000000D+06 -.465661287308D-07 -.307002332474D+00  .596046447754D-07
     .962073985466D+00  .246156250000D+03  .273002869466D+01 -.818176937496D-08
     .165721188667D-09  .100000000000D+01  .183300000000D+04  .000000000000D+00
     .240000000000D+01  .000000000000D+00  .465661287308D-08  .880000000000D+02
     .288006000000D+06  .400000000000D+01
 7 15  2 25 10  0  0.0  .443121418357D-03  .306954461848D-11  .000000000000D+00
     .810000000000D+02  .420312500000D+02  .432946605392D-08  .289518851778D+01
     .218302011490D-05  .804122374393D-02  .507198274136D-05  .515373230362D+04
     .295200000000D+06 -.987201929092D-07  .286162693146D+01 -.540167093277D-07
     .971299729115D+00  .287156250000D+03 -.275454707147D+01 -.804462080503D-08
     .539308178636D-10  .100000000000D+01  .183300000000D+04  .000000000000D+00
     .340000000000D+01  .000000000000D+00 -.111758708954D-07  .810000000000D+02
     .288006000000D+06  .400000000000D+01
